[{"OBJECT_NAME":"STARLINK-35959","OBJECT_ID":"2025-280G","EPOCH":"2026-03-09T22:45:14.984640","MEAN_MOTION":14.9832818,"ECCENTRICITY":0.00025614,"INCLINATION":70.0022,"RA_OF_ASC_NODE":333.84,"ARG_OF_PERICENTER":273.0904,"MEAN_ANOMALY":86.9962,"EPHEMERIS_TYPE":0,"CLASSIFICATION_TYPE":"U","NORAD_CAT_ID":66827,"ELEMENT_SET_NO":999,"REV_AT_EPOCH":1611,"BSTAR":0.0002026814,"MEAN_MOTION_DOT":2.326e-5,"MEAN_MOTION_DDOT":0},{"OBJECT_NAME":"CZ-6A DEB","OBJECT_ID":"2022-151CK","EPOCH":"2026-03-09T04:15:44.570880","MEAN_MOTION":14.7716303,"ECCENTRICITY":0.01031562,"INCLINATION":98.594,"RA_OF_ASC_NODE":152.6273,"ARG_OF_PERICENTER":122.5744,"MEAN_ANOMALY":238.5477,"EPHEMERIS_TYPE":0,"CLASSIFICATION_TYPE":"U","NORAD_CAT_ID":54340,"ELEMENT_SET_NO":999,"REV_AT_EPOCH":17671,"BSTAR":0.0019701996,"MEAN_MOTION_DOT":0.0001519,"MEAN_MOTION_DDOT":0}]
